CCSDS_OMM_VERS = 2.0
CREATION_DATE  = 
ORIGINATOR     = 

OBJECT_NAME    = ISS OBJECT XW
OBJECT_ID      = 1998-067XW
CENTER_NAME    = EARTH
REF_FRAME      = TEME
TIME_SYSTEM    = UTC
MEAN_ELEMENT_THEORY = SGP/SGP4

EPOCH          = 2026-02-18T13:26:26.280096
MEAN_MOTION    = 15.63698300
ECCENTRICITY   = .0003095
INCLINATION    = 51.6268
RA_OF_ASC_NODE = 162.6597
ARG_OF_PERICENTER = 350.8549
MEAN_ANOMALY   = 9.2388

EPHEMERIS_TYPE = 0
CLASSIFICATION_TYPE = U
NORAD_CAT_ID   = 66910
ELEMENT_SET_NO = 999
REV_AT_EPOCH   = 1218
BSTAR          = .97013E-3
MEAN_MOTION_DOT = .92839E-3
MEAN_MOTION_DDOT = 0

CCSDS_OMM_VERS = 2.0
CREATION_DATE  = 
ORIGINATOR     = 

OBJECT_NAME    = ISS OBJECT XX
OBJECT_ID      = 1998-067XX
CENTER_NAME    = EARTH
REF_FRAME      = TEME
TIME_SYSTEM    = UTC
MEAN_ELEMENT_THEORY = SGP/SGP4

EPOCH          = 2026-02-18T13:24:36.908928
MEAN_MOTION    = 15.67383765
ECCENTRICITY   = .0005006
INCLINATION    = 51.6247
RA_OF_ASC_NODE = 161.8963
ARG_OF_PERICENTER = 344.8616
MEAN_ANOMALY   = 15.2229

EPHEMERIS_TYPE = 0
CLASSIFICATION_TYPE = U
NORAD_CAT_ID   = 66911
ELEMENT_SET_NO = 999
REV_AT_EPOCH   = 1218
BSTAR          = .13339E-2
MEAN_MOTION_DOT = .149293E-2
MEAN_MOTION_DDOT = 0

CCSDS_OMM_VERS = 2.0
CREATION_DATE  = 
ORIGINATOR     = 

OBJECT_NAME    = ISS OBJECT XY
OBJECT_ID      = 1998-067XY
CENTER_NAME    = EARTH
REF_FRAME      = TEME
TIME_SYSTEM    = UTC
MEAN_ELEMENT_THEORY = SGP/SGP4

EPOCH          = 2026-02-18T13:52:55.811136
MEAN_MOTION    = 15.60296153
ECCENTRICITY   = .0001202
INCLINATION    = 51.6296
RA_OF_ASC_NODE = 163.5426
ARG_OF_PERICENTER = 358.6455
MEAN_ANOMALY   = 1.4535

EPHEMERIS_TYPE = 0
CLASSIFICATION_TYPE = U
NORAD_CAT_ID   = 66912
ELEMENT_SET_NO = 999
REV_AT_EPOCH   = 1216
BSTAR          = .83509E-3
MEAN_MOTION_DOT = .69706E-3
MEAN_MOTION_DDOT = 0

CCSDS_OMM_VERS = 2.0
CREATION_DATE  = 
ORIGINATOR     = 

OBJECT_NAME    = ISS OBJECT XZ
OBJECT_ID      = 1998-067XZ
CENTER_NAME    = EARTH
REF_FRAME      = TEME
TIME_SYSTEM    = UTC
MEAN_ELEMENT_THEORY = SGP/SGP4

EPOCH          = 2026-02-18T12:38:46.736448
MEAN_MOTION    = 15.50249343
ECCENTRICITY   = .0010346
INCLINATION    = 51.6321
RA_OF_ASC_NODE = 166.9465
ARG_OF_PERICENTER = 123.4884
MEAN_ANOMALY   = 236.7095

EPHEMERIS_TYPE = 0
CLASSIFICATION_TYPE = U
NORAD_CAT_ID   = 67683
ELEMENT_SET_NO = 999
REV_AT_EPOCH   = 181
BSTAR          = .60893E-3
MEAN_MOTION_DOT = .34822E-3
MEAN_MOTION_DDOT = 0

CCSDS_OMM_VERS = 2.0
CREATION_DATE  = 
ORIGINATOR     = 

OBJECT_NAME    = GXIBA-1
OBJECT_ID      = 1998-067YA
CENTER_NAME    = EARTH
REF_FRAME      = TEME
TIME_SYSTEM    = UTC
MEAN_ELEMENT_THEORY = SGP/SGP4

EPOCH          = 2026-02-18T14:03:04.874112
MEAN_MOTION    = 15.51346875
ECCENTRICITY   = .0011884
INCLINATION    = 51.6317
RA_OF_ASC_NODE = 166.5880
ARG_OF_PERICENTER = 116.3562
MEAN_ANOMALY   = 243.8649

EPHEMERIS_TYPE = 0
CLASSIFICATION_TYPE = U
NORAD_CAT_ID   = 67684
ELEMENT_SET_NO = 999
REV_AT_EPOCH   = 182
BSTAR          = .10466E-2
MEAN_MOTION_DOT = .62858E-3
MEAN_MOTION_DDOT = 0

CCSDS_OMM_VERS = 2.0
CREATION_DATE  = 
ORIGINATOR     = 

OBJECT_NAME    = CORAL
OBJECT_ID      = 1998-067YB
CENTER_NAME    = EARTH
REF_FRAME      = TEME
TIME_SYSTEM    = UTC
MEAN_ELEMENT_THEORY = SGP/SGP4

EPOCH          = 2026-02-18T14:09:59.270112
MEAN_MOTION    = 15.50440945
ECCENTRICITY   = .0012245
INCLINATION    = 51.6318
RA_OF_ASC_NODE = 166.6193
ARG_OF_PERICENTER = 119.6221
MEAN_ANOMALY   = 240.5989

EPHEMERIS_TYPE = 0
CLASSIFICATION_TYPE = U
NORAD_CAT_ID   = 67685
ELEMENT_SET_NO = 999
REV_AT_EPOCH   = 182
BSTAR          = .6882E-3
MEAN_MOTION_DOT = .39745E-3
MEAN_MOTION_DDOT = 0

CCSDS_OMM_VERS = 2.0
CREATION_DATE  = 
ORIGINATOR     = 

OBJECT_NAME    = ISS OBJECT YC
OBJECT_ID      = 1998-067YC
CENTER_NAME    = EARTH
REF_FRAME      = TEME
TIME_SYSTEM    = UTC
MEAN_ELEMENT_THEORY = SGP/SGP4

EPOCH          = 2026-02-18T12:35:37.355424
MEAN_MOTION    = 15.50655569
ECCENTRICITY   = .0007806
INCLINATION    = 51.6328
RA_OF_ASC_NODE = 166.9334
ARG_OF_PERICENTER = 91.8250
MEAN_ANOMALY   = 268.3633

EPHEMERIS_TYPE = 0
CLASSIFICATION_TYPE = U
NORAD_CAT_ID   = 67686
ELEMENT_SET_NO = 999
REV_AT_EPOCH   = 181
BSTAR          = .75108E-3
MEAN_MOTION_DOT = .437E-3
MEAN_MOTION_DDOT = 0

CCSDS_OMM_VERS = 2.0
CREATION_DATE  = 
ORIGINATOR     = 

OBJECT_NAME    = LEOPARD
OBJECT_ID      = 1998-067YD
CENTER_NAME    = EARTH
REF_FRAME      = TEME
TIME_SYSTEM    = UTC
MEAN_ELEMENT_THEORY = SGP/SGP4

EPOCH          = 2026-02-19T07:11:39.735744
MEAN_MOTION    = 15.50418855
ECCENTRICITY   = .00078072
INCLINATION    = 51.6326
RA_OF_ASC_NODE = 163.1085
ARG_OF_PERICENTER = 96.4151
MEAN_ANOMALY   = 263.7728

EPHEMERIS_TYPE = 0
CLASSIFICATION_TYPE = U
NORAD_CAT_ID   = 67687
ELEMENT_SET_NO = 999
REV_AT_EPOCH   = 185
BSTAR          = .64842468E-3
MEAN_MOTION_DOT = .37315E-3
MEAN_MOTION_DDOT = 0

CCSDS_OMM_VERS = 2.0
CREATION_DATE  = 
ORIGINATOR     = 

OBJECT_NAME    = ISS OBJECT YE
OBJECT_ID      = 1998-067YE
CENTER_NAME    = EARTH
REF_FRAME      = TEME
TIME_SYSTEM    = UTC
MEAN_ELEMENT_THEORY = SGP/SGP4

EPOCH          = 2026-02-19T07:09:54.450432
MEAN_MOTION    = 15.50621471
ECCENTRICITY   = .00077032
INCLINATION    = 51.6328
RA_OF_ASC_NODE = 163.0998
ARG_OF_PERICENTER = 94.5540
MEAN_ANOMALY   = 265.6329

EPHEMERIS_TYPE = 0
CLASSIFICATION_TYPE = U
NORAD_CAT_ID   = 67688
ELEMENT_SET_NO = 999
REV_AT_EPOCH   = 185
BSTAR          = .70639642E-3
MEAN_MOTION_DOT = .41007E-3
MEAN_MOTION_DDOT = 0

CCSDS_OMM_VERS = 2.0
CREATION_DATE  = 
ORIGINATOR     = 

OBJECT_NAME    = CREW DRAGON 12
OBJECT_ID      = 2026-031A
CENTER_NAME    = EARTH
REF_FRAME      = TEME
TIME_SYSTEM    = UTC
MEAN_ELEMENT_THEORY = SGP/SGP4

EPOCH          = 2026-02-18T19:06:21.339648
MEAN_MOTION    = 15.48691264
ECCENTRICITY   = .00109355
INCLINATION    = 51.6323
RA_OF_ASC_NODE = 165.7431
ARG_OF_PERICENTER = 112.1599
MEAN_ANOMALY   = 248.0551

EPHEMERIS_TYPE = 0
CLASSIFICATION_TYPE = U
NORAD_CAT_ID   = 67796
ELEMENT_SET_NO = 999
REV_AT_EPOCH   = 82
BSTAR          = .18896108E-3
MEAN_MOTION_DOT = .9878E-4
MEAN_MOTION_DDOT = 0

